[{"OBJECT_NAME":"FLOCK 4H-30","OBJECT_ID":"2025-276BV","EPOCH":"2026-03-09T18:18:56.169504","MEAN_MOTION":15.18554435,"ECCENTRICITY":0.00042713,"INCLINATION":97.4298,"RA_OF_ASC_NODE":144.0215,"ARG_OF_PERICENTER":18.1916,"MEAN_ANOMALY":341.947,"EPHEMERIS_TYPE":0,"CLASSIFICATION_TYPE":"U","NORAD_CAT_ID":66733,"ELEMENT_SET_NO":999,"REV_AT_EPOCH":1532,"BSTAR":0.00041509432,"MEAN_MOTION_DOT":8.513e-5,"MEAN_MOTION_DDOT":0},{"OBJECT_NAME":"OBJECT F","OBJECT_ID":"2026-027F","EPOCH":"2026-03-09T19:49:10.682112","MEAN_MOTION":15.18180546,"ECCENTRICITY":0.00096725,"INCLINATION":97.4922,"RA_OF_ASC_NODE":197.863,"ARG_OF_PERICENTER":203.5802,"MEAN_ANOMALY":156.499,"EPHEMERIS_TYPE":0,"CLASSIFICATION_TYPE":"U","NORAD_CAT_ID":67751,"ELEMENT_SET_NO":999,"REV_AT_EPOCH":388,"BSTAR":0.00022390931,"MEAN_MOTION_DOT":4.513e-5,"MEAN_MOTION_DDOT":0}]
