FLOCK 4H-30             
1 66733U 25276BV  26068.76315010  .00008513  00000+0  41509-3 0  9990
2 66733  97.4298 144.0215 0004271  18.1916 341.9470 15.18554435 15323
2026-027F               
1 67751U 26027F   26068.82581808  .00004513  00000+0  22391-3 0  9997
2 67751  97.4922 197.8630 0009672 203.5802 156.4990 15.18180546  3881
